index,OBJECT_NAME,OBJECT_ID,EPOCH,MEAN_MOTION,ECCENTRICITY,INCLINATION,RA_OF_ASC_NODE,ARG_OF_PERICENTER,MEAN_ANOMALY,EPHEMERIS_TYPE,CLASSIFICATION_TYPE,NORAD_CAT_ID,ELEMENT_SET_NO,REV_AT_EPOCH,BSTAR,MEAN_MOTION_DOT,MEAN_MOTION_DDOT,GROUP,downloaded
54,ISS DEB,1998-067TM,2022-05-09T14:37:12.286272,15.53367268,0.0008621,51.644,167.4796,65.8346,294.6795,0,U,52329,999,173,0.0019826,0.00129452,0.0,stations,2022-05-13 13:10:30.245709
55,ISS DEB,1998-067TN,2022-05-03T09:05:48.142752,15.52549074,0.0005885,51.6456,198.4496,51.8663,29.3639,0,U,52432,999,1,0.0037174,0.00239164,0.0,stations,2022-05-13 13:10:30.245709
56,TIANZHOU-4,2022-050A,2022-05-11T00:13:16.183776,15.61111809,0.00119,41.4698,84.9227,309.5467,94.8674,0,U,52509,999,5896,-4.9967e-07,-3.95e-06,0.0,stations,2022-05-13 13:10:30.245709
57,2022-050B,2022-050B,2022-05-13T01:21:01.327968,15.88433272,0.0050464,41.4728,71.4748,145.2394,215.2571,0,U,52510,999,51,0.0012517,0.00400481,6.5233e-05,stations,2022-05-13 13:10:30.245709
58,2022-050C,2022-050C,2022-05-11T06:29:16.414368,15.84868929,0.0187024,41.2962,83.1805,158.1311,347.7438,0,U,52511,999,24,0.0045072,0.0492787,6.8818e-06,stations,2022-05-13 13:10:30.245709
59,2022-050D,2022-050D,2022-05-13T00:39:01.627488,16.04419858,0.0079107,41.4926,71.3397,212.2404,147.4044,0,U,52512,999,50,0.00045451,0.00480173,7.4714e-06,stations,2022-05-13 13:10:30.245709
0,NOAA 15,1998-030A,2022-05-13T03:06:39.548160,14.2612193,0.0011135,98.647,163.122,46.0609,314.1488,0,U,25338,999,24823,9.794e-05,1.91e-06,0.0,weather,2022-05-13 13:10:31.381687
1,DMSP 5D-3 F15 (USA 147),1999-067A,2022-05-12T21:16:03.348768,14.16532003,0.000914,99.0518,123.8569,292.8111,182.1019,0,U,25991,999,15873,9.898e-05,1.51e-06,0.0,weather,2022-05-13 13:10:31.381687
2,METEOSAT-8 (MSG-1),2002-040B,2022-05-12T20:26:10.317984,1.00271694,0.000308,7.9735,50.8384,324.0453,203.6785,0,U,27509,999,7225,0.0,1.46e-06,0.0,weather,2022-05-13 13:10:31.381687
3,DMSP 5D-3 F16 (USA 172),2003-048A,2022-05-13T04:58:42.230208,14.13670171,0.0008396,98.9873,123.8391,61.1653,1.4075,0,U,28054,999,95804,3.7697e-05,2.6e-07,0.0,weather,2022-05-13 13:10:31.381687
4,NOAA 18,2005-018A,2022-05-13T03:33:38.109600,14.12726305,0.0015274,98.9502,203.61,73.5688,286.7161,0,U,28654,999,87508,9.7472e-05,1.36e-06,0.0,weather,2022-05-13 13:10:31.381687
5,METEOSAT-9 (MSG-2),2005-049B,2022-05-12T20:27:25.675200,1.00276548,4.92e-05,5.9411,66.5135,337.8681,178.6203,0,U,28912,999,6003,0.0,1.4e-06,0.0,weather,2022-05-13 13:10:31.381687
6,EWS-G1 (GOES 13),2006-018A,2022-05-12T20:31:56.958240,1.00274506,0.0001519,0.5094,96.7514,85.7224,57.8773,0,U,29155,999,2837,0.0,4.5e-07,0.0,weather,2022-05-13 13:10:31.381687
7,DMSP 5D-3 F17 (USA 191),2006-050A,2022-05-13T04:40:29.091360,14.14096704,0.0009996,98.7686,148.9077,9.2979,350.8377,0,U,29522,999,80092,5.5281e-05,6.2e-07,0.0,weather,2022-05-13 13:10:31.381687
8,FENGYUN 3A,2008-026A,2022-05-13T03:13:15.118464,14.1871228,0.0009742,98.4997,97.2151,121.0554,239.1579,0,U,32958,999,72332,6.1242e-05,8.6e-07,0.0,weather,2022-05-13 13:10:31.381687
9,FENGYUN 2E,2008-066A,2022-05-12T20:39:06.489792,1.00272695,0.0003989,5.8276,65.4995,4.4427,197.2255,0,U,33463,999,4908,0.0,-1.93e-06,0.0,weather,2022-05-13 13:10:31.381687
10,NOAA 19,2009-005A,2022-05-13T03:29:35.794752,14.12561482,0.0012871,99.151,166.5351,288.278,71.699,0,U,33591,999,68346,0.00012395,1.83e-06,0.0,weather,2022-05-13 13:10:31.381687
11,GOES 14,2009-033A,2022-05-12T14:34:20.268192,1.0027116,0.0011341,0.2346,94.3259,122.2373,127.8716,0,U,35491,999,4710,0.0,-8.1e-07,0.0,weather,2022-05-13 13:10:31.381687
12,METEOR-M 1,2009-049A,2022-05-13T03:39:13.071168,14.22328927,0.0002053,98.5256,104.767,0.8955,359.2226,0,U,35865,999,65667,5.9221e-05,8.9e-07,0.0,weather,2022-05-13 13:10:31.381687
13,DMSP 5D-3 F18 (USA 210),2009-057A,2022-05-13T03:40:39.599040,14.134916,0.0010908,98.7204,113.4144,181.2482,178.8665,0,U,35951,999,64812,0.00015816,2.55e-06,0.0,weather,2022-05-13 13:10:31.381687
14,GOES 15,2010-008A,2022-05-12T13:39:28.094688,1.00281186,0.0002749,0.2072,104.1223,347.019,216.2224,0,U,36411,999,4466,0.0,6.2e-07,0.0,weather,2022-05-13 13:10:31.381687
15,COMS 1,2010-032A,2022-05-12T20:51:00.855360,1.00269958,9.72e-05,0.9728,93.2562,328.0565,250.2063,0,U,36744,999,3608,0.0,-3.33e-06,0.0,weather,2022-05-13 13:10:31.381687
16,FENGYUN 3B,2010-059A,2022-05-13T04:33:42.759072,14.14252913,0.0023248,99.0935,138.5379,94.6893,265.6938,0,U,37214,999,59597,2.5367e-05,3e-08,0.0,weather,2022-05-13 13:10:31.381687
17,SUOMI NPP,2011-061A,2022-05-13T00:37:48.425088,14.19563253,0.0001402,98.731,72.0722,84.5789,327.7887,0,U,37849,999,54616,4.7252e-05,5.6e-07,0.0,weather,2022-05-13 13:10:31.381687
18,FENGYUN 2F,2012-002A,2022-05-12T20:46:29.570592,1.0027086,0.0003659,3.7054,79.938,9.8386,204.7623,0,U,38049,999,3787,0.0,-3.45e-06,0.0,weather,2022-05-13 13:10:31.381687
19,METEOSAT-10 (MSG-3),2012-035B,2022-05-12T18:33:38.375712,1.0027645,0.0001009,1.4731,38.8609,255.8742,223.4958,0,U,38552,999,3585,0.0,7.2e-07,0.0,weather,2022-05-13 13:10:31.381687
20,METOP-B,2012-049A,2022-05-13T03:43:54.234912,14.21501686,0.0001811,98.6981,193.4255,122.5714,322.8137,0,U,38771,999,50071,6.135e-05,9.1e-07,0.0,weather,2022-05-13 13:10:31.381687
