NOAA 15
1 25338U 98030A   22133.12962440  .00000191  00000-0  97940-4 0  9994
2 25338  98.6470 163.1220 0011135  46.0609 314.1488 14.26121930248235
DMSP 5D-2 F15 (USA 147)
1 25991U 99067A   22132.88614987  .00000151  00000-0  98980-4 0  9993
2 25991  99.0518 123.8569 0009140 292.8111 182.1019 14.16532003158733
METEOSAT 8 (MSG 1)
1 27509U 02040B   22132.85150831  .00000146  00000-0  00000-0 0  9991
2 27509   7.9735  50.8384 0003080 324.0453 203.6785  1.00271694 72253
DMSP 5D-3 F16 (USA 172)
1 28054U 03048A   22133.20743322  .00000026  00000-0  37697-4 0  9992
2 28054  98.9873 123.8391 0008396  61.1653   1.4075 14.13670171958044
NOAA 18
1 28654U 05018A   22133.14835775  .00000136  00000-0  97472-4 0  9993
2 28654  98.9502 203.6100 0015274  73.5688 286.7161 14.12726305875088
METEOSAT 9 (MSG 2)
1 28912U 05049B   22132.85238050  .00000140  00000-0  00000-0 0  9996
2 28912   5.9411  66.5135 0000492 337.8681 178.6203  1.00276548 60030
GOES 13
1 29155U 06018A   22132.85552035  .00000045  00000-0  00000-0 0  9999
2 29155   0.5094  96.7514 0001519  85.7224  57.8773  1.00274506 28370
DMSP 5D-3 F17 (USA 191)
1 29522U 06050A   22133.19478115  .00000062  00000-0  55281-4 0  9991
2 29522  98.7686 148.9077 0009996   9.2979 350.8377 14.14096704800929
FENGYUN 3A
1 32958U 08026A   22133.13420276  .00000086  00000-0  61242-4 0  9992
2 32958  98.4997  97.2151 0009742 121.0554 239.1579 14.18712280723327
FENGYUN 2E
1 33463U 08066A   22132.86049178 -.00000193  00000-0  00000+0 0  9995
2 33463   5.8276  65.4995 0003989   4.4427 197.2255  1.00272695 49081
NOAA 19
1 33591U 09005A   22133.14555318  .00000183  00000-0  12395-3 0  9993
2 33591  99.1510 166.5351 0012871 288.2780  71.6990 14.12561482683462
GOES 14
1 35491U 09033A   22132.60717903 -.00000081  00000-0  00000-0 0  9990
2 35491   0.2346  94.3259 0011341 122.2373 127.8716  1.00271160 47103
METEOR-M
1 35865U 09049A   22133.15223462  .00000089  00000-0  59221-4 0  9995
2 35865  98.5256 104.7670 0002053   0.8955 359.2226 14.22328927656675
DMSP 5D-3 F18 (USA 210)
1 35951U 09057A   22133.15323610  .00000255  00000-0  15816-3 0  9992
2 35951  98.7204 113.4144 0010908 181.2482 178.8665 14.13491600648128
GOES 15
1 36411U 10008A   22132.56907517  .00000062  00000-0  00000-0 0  9992
2 36411   0.2072 104.1223 0002749 347.0190 216.2224  1.00281186 44663
COMS 1
1 36744U 10032A   22132.86875990 -.00000333  00000-0  00000-0 0  9992
2 36744   0.9728  93.2562 0000972 328.0565 250.2063  1.00269958 36081
FENGYUN 3B
1 37214U 10059A   22133.19007823  .00000003  00000-0  25367-4 0  9993
2 37214  99.0935 138.5379 0023248  94.6893 265.6938 14.14252913595974
NPP
1 37849U 11061A   22133.02625492  .00000056  00000-0  47252-4 0  9996
2 37849  98.7310  72.0722 0001402  84.5789 327.7887 14.19563253546162
FENGYUN 2F
1 38049U 12002A   22132.86562003 -.00000345  00000-0  00000-0 0  9992
2 38049   3.7054  79.9380 0003659   9.8386 204.7623  1.00270860 37871
METEOSAT 10 (MSG 3)
1 38552U 12035B   22132.77336083  .00000072  00000-0  00000-0 0  9990
2 38552   1.4731  38.8609 0001009 255.8742 223.4958  1.00276450 35857
METOP-B
1 38771U 12049A   22133.15548883  .00000091  00000-0  61350-4 0  9994
2 38771  98.6981 193.4255 0001811 122.5714 322.8137 14.21501686500714
ISS DEB
1 52329U 98067TM  22129.60916998  .00129452  00000-0  19826-2 0  9996
2 52329  51.6440 167.4796 0008621  65.8346 294.6795 15.53367268  1731
ISS DEB
1 52432U 98067TN  22123.37902943  .00239164  00000-0  37174-2 0  9992
2 52432  51.6456 198.4496 0005885  51.8663  29.3639 15.52549074    16
TIANZHOU 4
1 52509U 22050A   22131.00921509 -.00000395  00000-0 -49967-6 0  9995
2 52509  41.4698  84.9227 0011900 309.5467  94.8674 15.61111809 58961
OBJECT B
1 52510U 22050B   22133.05626537  .00400481  65233-4  12517-2 0  9995
2 52510  41.4728  71.4748 0050464 145.2394 215.2571 15.88433272   511
OBJECT C
1 52511U 22050C   22131.27032887  .04927870  68818-5  45072-2 0  9992
2 52511  41.2962  83.1805 0187024 158.1311 347.7438 15.84868929   249
OBJECT D
1 52512U 22050D   22133.02710217  .00480173  74714-5  45451-3 0  9998
2 52512  41.4926  71.3397 0079107 212.2404 147.4044 16.04419858   507
